{
    "links": {
        "self": "http://www.neowsapp.com/rest/v1/neo/3753022?api_key=iIulBulltgU6a56xZRHN4H3l9WmuAYTsLGpBGhQ2"
    },
    "id": "3753022",
    "neo_reference_id": "3753022",
    "name": "(2016 JK17)",
    "designation": "2016 JK17",
    "nasa_jpl_url": "http://ssd.jpl.nasa.gov/sbdb.cgi?sstr=3753022",
    "absolute_magnitude_h": 20.9,
    "estimated_diameter": {
        "kilometers": {
            "estimated_diameter_min": 0.1756123185,
            "estimated_diameter_max": 0.3926810818
        },
        "meters": {
            "estimated_diameter_min": 175.6123184804,
            "estimated_diameter_max": 392.6810818086
        },
        "miles": {
            "estimated_diameter_min": 0.1091204019,
            "estimated_diameter_max": 0.2440006365
        },
        "feet": {
            "estimated_diameter_min": 576.1559189633,
            "estimated_diameter_max": 1288.3238004408
        }
    },
    "is_potentially_hazardous_asteroid": false,
    "close_approach_data": [
        {
            "close_approach_date": "2016-04-12",
            "close_approach_date_full": "2016-Apr-12 20:29",
            "epoch_date_close_approach": 1460492940000,
            "relative_velocity": {
                "kilometers_per_second": "31.2047378185",
                "kilometers_per_hour": "112337.0561465932",
                "miles_per_hour": "69801.8780261984"
            },
            "miss_distance": {
                "astronomical": "0.108758798",
                "lunar": "42.307172422",
                "kilometers": "16270084.52456026",
                "miles": "10109761.727681188"
            },
            "orbiting_body": "Earth"
        }
    ],
    "orbital_data": {
        "orbit_id": "4",
        "orbit_determination_date": "2017-04-06 08:26:03",
        "first_observation_date": "2016-05-05",
        "last_observation_date": "2016-05-11",
        "data_arc_in_days": 6,
        "observations_used": 17,
        "orbit_uncertainty": "9",
        "minimum_orbit_intersection": ".0648456",
        "jupiter_tisserand_invariant": "4.421",
        "epoch_osculation": "2457515.5",
        "eccentricity": ".6632762353119723",
        "semi_major_axis": "1.341336788482024",
        "inclination": "44.47597101274423",
        "ascending_node_longitude": "22.859384918728",
        "orbital_period": "567.4207074785858",
        "perihelion_distance": ".4516599731322157",
        "perihelion_argument": "61.03798555431119",
        "aphelion_distance": "2.231013603831832",
        "perihelion_time": "2457439.203270017468",
        "mean_anomaly": "48.40645121282978",
        "mean_motion": ".6344498804065698",
        "equinox": "J2000",
        "orbit_class": {
            "orbit_class_type": "APO",
            "orbit_class_description": "Near-Earth asteroid orbits which cross the Earth’s orbit similar to that of 1862 Apollo",
            "orbit_class_range": "a (semi-major axis) > 1.0 AU; q (perihelion) < 1.017 AU"
        }
    },
    "is_sentry_object": false
}